LEO EXPRESS 3           
1 66687U 25276X   26068.70934124  .00012924  00000+0  62124-3 0  9992
2 66687  97.4301 143.9034 0008989 143.3594 216.8257 15.18911167 15317
FLOCK 4H-26             
1 66729U 25276BR  26068.70647476  .00007540  00000+0  37007-3 0  9990
2 66729  97.4257 143.8885 0004771  14.6559 345.4813 15.18363903 15319
